{
    "links": {
        "self": "http://www.neowsapp.com/rest/v1/neo/3555103?api_key=iIulBulltgU6a56xZRHN4H3l9WmuAYTsLGpBGhQ2"
    },
    "id": "3555103",
    "neo_reference_id": "3555103",
    "name": "(2011 AN16)",
    "designation": "2011 AN16",
    "nasa_jpl_url": "http://ssd.jpl.nasa.gov/sbdb.cgi?sstr=3555103",
    "absolute_magnitude_h": 19.1,
    "estimated_diameter": {
        "kilometers": {
            "estimated_diameter_min": 0.4023045798,
            "estimated_diameter_max": 0.8995803882
        },
        "meters": {
            "estimated_diameter_min": 402.3045798343,
            "estimated_diameter_max": 899.5803881691
        },
        "miles": {
            "estimated_diameter_min": 0.2499803991,
            "estimated_diameter_max": 0.5589731654
        },
        "feet": {
            "estimated_diameter_min": 1319.8969577037,
            "estimated_diameter_max": 2951.3793207207
        }
    },
    "is_potentially_hazardous_asteroid": false,
    "close_approach_data": [
        {
            "close_approach_date": "1940-03-03",
            "close_approach_date_full": "1940-Mar-03 21:59",
            "epoch_date_close_approach": -941335260000,
            "relative_velocity": {
                "kilometers_per_second": "9.7673326889",
                "kilometers_per_hour": "35162.3976799226",
                "miles_per_hour": "21848.5464917274"
            },
            "miss_distance": {
                "astronomical": "0.4303999035",
                "lunar": "167.4255624615",
                "kilometers": "64386908.811805545",
                "miles": "40008169.932164721"
            },
            "orbiting_body": "Earth"
        },
        {
            "close_approach_date": "1959-03-07",
            "close_approach_date_full": "1959-Mar-07 04:13",
            "epoch_date_close_approach": -341524020000,
            "relative_velocity": {
                "kilometers_per_second": "9.660795257",
                "kilometers_per_hour": "34778.8629253662",
                "miles_per_hour": "21610.2329104866"
            },
            "miss_distance": {
                "astronomical": "0.4745786212",
                "lunar": "184.6110836468",
                "kilometers": "70995950.879056844",
                "miles": "44114838.2440146872"
            },
            "orbiting_body": "Earth"
        },
        {
            "close_approach_date": "2011-03-07",
            "close_approach_date_full": "2011-Mar-07 19:53",
            "epoch_date_close_approach": 1299527580000,
            "relative_velocity": {
                "kilometers_per_second": "11.1693078435",
                "kilometers_per_hour": "40209.5082367019",
                "miles_per_hour": "24984.6247151885"
            },
            "miss_distance": {
                "astronomical": "0.2970823231",
                "lunar": "115.5650236859",
                "kilometers": "44442882.750411797",
                "miles": "27615526.7921129186"
            },
            "orbiting_body": "Earth"
        },
        {
            "close_approach_date": "2030-03-04",
            "close_approach_date_full": "2030-Mar-04 03:56",
            "epoch_date_close_approach": 1898826960000,
            "relative_velocity": {
                "kilometers_per_second": "9.8057630588",
                "kilometers_per_hour": "35300.7470117855",
                "miles_per_hour": "21934.5113862953"
            },
            "miss_distance": {
                "astronomical": "0.4093701297",
                "lunar": "159.2449804533",
                "kilometers": "61240899.444743739",
                "miles": "38053330.3585880382"
            },
            "orbiting_body": "Earth"
        },
        {
            "close_approach_date": "2182-03-04",
            "close_approach_date_full": "2182-Mar-04 19:08",
            "epoch_date_close_approach": 6695550480000,
            "relative_velocity": {
                "kilometers_per_second": "10.6214234195",
                "kilometers_per_hour": "38237.1243101485",
                "miles_per_hour": "23759.0620470476"
            },
            "miss_distance": {
                "astronomical": "0.456567243",
                "lunar": "177.604657527",
                "kilometers": "68301487.06457241",
                "miles": "42440576.066262858"
            },
            "orbiting_body": "Earth"
        }
    ],
    "orbital_data": {
        "orbit_id": "56",
        "orbit_determination_date": "2017-04-06 08:55:02",
        "first_observation_date": "2011-01-08",
        "last_observation_date": "2016-07-02",
        "data_arc_in_days": 2002,
        "observations_used": 266,
        "orbit_uncertainty": "1",
        "minimum_orbit_intersection": ".221916",
        "jupiter_tisserand_invariant": "3.010",
        "epoch_osculation": "2459000.5",
        "eccentricity": ".5732741419509529",
        "semi_major_axis": "2.814835857261246",
        "inclination": "15.54822129393429",
        "ascending_node_longitude": "172.696860462399",
        "orbital_period": "1724.956068889401",
        "perihelion_distance": "1.20116324645703",
        "perihelion_argument": "340.1291705423257",
        "aphelion_distance": "4.428508468065462",
        "perihelion_time": "2459072.656075042199",
        "mean_anomaly": "344.9409573474435",
        "mean_motion": ".2087009672262455",
        "equinox": "J2000",
        "orbit_class": {
            "orbit_class_type": "AMO",
            "orbit_class_description": "Near-Earth asteroid orbits similar to that of 1221 Amor",
            "orbit_class_range": "1.017 AU < q (perihelion) < 1.3 AU"
        }
    },
    "is_sentry_object": false
}